CCSDS_OMM_VERS = 2.0
CREATION_DATE  = 
ORIGINATOR     = 

OBJECT_NAME    = STARLINK-36861
OBJECT_ID      = 2026-037C
CENTER_NAME    = EARTH
REF_FRAME      = TEME
TIME_SYSTEM    = UTC
MEAN_ELEMENT_THEORY = SGP/SGP4

EPOCH          = 2026-03-11T10:00:01.999584
MEAN_MOTION    = 15.81999315
ECCENTRICITY   = .0001827
INCLINATION    = 42.9980
RA_OF_ASC_NODE = 187.9738
ARG_OF_PERICENTER = 251.4014
MEAN_ANOMALY   = 156.4665

EPHEMERIS_TYPE = 0
CLASSIFICATION_TYPE = U
NORAD_CAT_ID   = 67934
ELEMENT_SET_NO = 999
REV_AT_EPOCH   = 347
BSTAR          = .81934E-4
MEAN_MOTION_DOT = .16739E-3
MEAN_MOTION_DDOT = 0

CCSDS_OMM_VERS = 2.0
CREATION_DATE  = 
ORIGINATOR     = 

OBJECT_NAME    = STARLINK-36860
OBJECT_ID      = 2026-037D
CENTER_NAME    = EARTH
REF_FRAME      = TEME
TIME_SYSTEM    = UTC
MEAN_ELEMENT_THEORY = SGP/SGP4

EPOCH          = 2026-03-11T12:00:02.998944
MEAN_MOTION    = 15.81989826
ECCENTRICITY   = .0001615
INCLINATION    = 42.9978
RA_OF_ASC_NODE = 187.4536
ARG_OF_PERICENTER = 264.3703
MEAN_ANOMALY   = 263.0274

EPHEMERIS_TYPE = 0
CLASSIFICATION_TYPE = U
NORAD_CAT_ID   = 67935
ELEMENT_SET_NO = 999
REV_AT_EPOCH   = 348
BSTAR          = .18261E-3
MEAN_MOTION_DOT = .38041E-3
MEAN_MOTION_DDOT = 0

CCSDS_OMM_VERS = 2.0
CREATION_DATE  = 
ORIGINATOR     = 

OBJECT_NAME    = STARLINK-36848
OBJECT_ID      = 2026-037E
CENTER_NAME    = EARTH
REF_FRAME      = TEME
TIME_SYSTEM    = UTC
MEAN_ELEMENT_THEORY = SGP/SGP4

EPOCH          = 2026-03-11T12:00:02.998944
MEAN_MOTION    = 15.82002183
ECCENTRICITY   = .0001657
INCLINATION    = 42.9979
RA_OF_ASC_NODE = 187.4313
ARG_OF_PERICENTER = 289.1623
MEAN_ANOMALY   = 246.7779

EPHEMERIS_TYPE = 0
CLASSIFICATION_TYPE = U
NORAD_CAT_ID   = 67936
ELEMENT_SET_NO = 999
REV_AT_EPOCH   = 348
BSTAR          = .52113E-4
MEAN_MOTION_DOT = .10446E-3
MEAN_MOTION_DDOT = 0

CCSDS_OMM_VERS = 2.0
CREATION_DATE  = 
ORIGINATOR     = 

OBJECT_NAME    = STARLINK-36370
OBJECT_ID      = 2026-037F
CENTER_NAME    = EARTH
REF_FRAME      = TEME
TIME_SYSTEM    = UTC
MEAN_ELEMENT_THEORY = SGP/SGP4

EPOCH          = 2026-03-11T12:00:02.998944
MEAN_MOTION    = 15.81979273
ECCENTRICITY   = .0001155
INCLINATION    = 42.9981
RA_OF_ASC_NODE = 187.4436
ARG_OF_PERICENTER = 262.7809
MEAN_ANOMALY   = 268.8939

EPHEMERIS_TYPE = 0
CLASSIFICATION_TYPE = U
NORAD_CAT_ID   = 67937
ELEMENT_SET_NO = 999
REV_AT_EPOCH   = 348
BSTAR          = .27992E-3
MEAN_MOTION_DOT = .58705E-3
MEAN_MOTION_DDOT = 0

CCSDS_OMM_VERS = 2.0
CREATION_DATE  = 
ORIGINATOR     = 

OBJECT_NAME    = STARLINK-36371
OBJECT_ID      = 2026-037G
CENTER_NAME    = EARTH
REF_FRAME      = TEME
TIME_SYSTEM    = UTC
MEAN_ELEMENT_THEORY = SGP/SGP4

EPOCH          = 2026-03-11T10:00:01.999584
MEAN_MOTION    = 15.82031052
ECCENTRICITY   = .0001778
INCLINATION    = 42.9981
RA_OF_ASC_NODE = 187.9306
ARG_OF_PERICENTER = 261.6736
MEAN_ANOMALY   = 163.2921

EPHEMERIS_TYPE = 0
CLASSIFICATION_TYPE = U
NORAD_CAT_ID   = 67938
ELEMENT_SET_NO = 999
REV_AT_EPOCH   = 347
BSTAR          = -.11423E-3
MEAN_MOTION_DOT = -.24536E-3
MEAN_MOTION_DDOT = 0

CCSDS_OMM_VERS = 2.0
CREATION_DATE  = 
ORIGINATOR     = 

OBJECT_NAME    = STARLINK-36246
OBJECT_ID      = 2026-037H
CENTER_NAME    = EARTH
REF_FRAME      = TEME
TIME_SYSTEM    = UTC
MEAN_ELEMENT_THEORY = SGP/SGP4

EPOCH          = 2026-03-11T12:00:02.998944
MEAN_MOTION    = 15.82021463
ECCENTRICITY   = .0001521
INCLINATION    = 42.9982
RA_OF_ASC_NODE = 187.4105
ARG_OF_PERICENTER = 260.6542
MEAN_ANOMALY   = 283.8442

EPHEMERIS_TYPE = 0
CLASSIFICATION_TYPE = U
NORAD_CAT_ID   = 67939
ELEMENT_SET_NO = 999
REV_AT_EPOCH   = 340
BSTAR          = -.17616E-3
MEAN_MOTION_DOT = -.37474E-3
MEAN_MOTION_DDOT = 0

CCSDS_OMM_VERS = 2.0
CREATION_DATE  = 
ORIGINATOR     = 

OBJECT_NAME    = STARLINK-36907
OBJECT_ID      = 2026-037J
CENTER_NAME    = EARTH
REF_FRAME      = TEME
TIME_SYSTEM    = UTC
MEAN_ELEMENT_THEORY = SGP/SGP4

EPOCH          = 2026-03-11T10:00:01.999584
MEAN_MOTION    = 15.81999059
ECCENTRICITY   = .0001622
INCLINATION    = 42.9981
RA_OF_ASC_NODE = 187.8868
ARG_OF_PERICENTER = 276.6726
MEAN_ANOMALY   = 165.3985

EPHEMERIS_TYPE = 0
CLASSIFICATION_TYPE = U
NORAD_CAT_ID   = 67940
ELEMENT_SET_NO = 999
REV_AT_EPOCH   = 347
BSTAR          = .17272E-3
MEAN_MOTION_DOT = .35957E-3
MEAN_MOTION_DDOT = 0

CCSDS_OMM_VERS = 2.0
CREATION_DATE  = 
ORIGINATOR     = 

OBJECT_NAME    = STARLINK-36927
OBJECT_ID      = 2026-037K
CENTER_NAME    = EARTH
REF_FRAME      = TEME
TIME_SYSTEM    = UTC
MEAN_ELEMENT_THEORY = SGP/SGP4

EPOCH          = 2026-03-11T10:00:01.999584
MEAN_MOTION    = 15.82028244
ECCENTRICITY   = .0001541
INCLINATION    = 42.9980
RA_OF_ASC_NODE = 187.8655
ARG_OF_PERICENTER = 271.2558
MEAN_ANOMALY   = 179.3453

EPHEMERIS_TYPE = 0
CLASSIFICATION_TYPE = U
NORAD_CAT_ID   = 67941
ELEMENT_SET_NO = 999
REV_AT_EPOCH   = 347
BSTAR          = .29039E-4
MEAN_MOTION_DOT = .5589E-4
MEAN_MOTION_DDOT = 0

CCSDS_OMM_VERS = 2.0
CREATION_DATE  = 
ORIGINATOR     = 

OBJECT_NAME    = STARLINK-36914
OBJECT_ID      = 2026-037L
CENTER_NAME    = EARTH
REF_FRAME      = TEME
TIME_SYSTEM    = UTC
MEAN_ELEMENT_THEORY = SGP/SGP4

EPOCH          = 2026-03-11T12:00:02.998944
MEAN_MOTION    = 15.82057480
ECCENTRICITY   = .0001161
INCLINATION    = 42.9980
RA_OF_ASC_NODE = 187.3990
ARG_OF_PERICENTER = 272.7099
MEAN_ANOMALY   = 276.0583

EPHEMERIS_TYPE = 0
CLASSIFICATION_TYPE = U
NORAD_CAT_ID   = 67942
ELEMENT_SET_NO = 999
REV_AT_EPOCH   = 348
BSTAR          = -.50569E-3
MEAN_MOTION_DOT = -.10592E-2
MEAN_MOTION_DDOT = 0

CCSDS_OMM_VERS = 2.0
CREATION_DATE  = 
ORIGINATOR     = 

OBJECT_NAME    = STARLINK-36851
OBJECT_ID      = 2026-037M
CENTER_NAME    = EARTH
REF_FRAME      = TEME
TIME_SYSTEM    = UTC
MEAN_ELEMENT_THEORY = SGP/SGP4

EPOCH          = 2026-03-11T12:00:02.998944
MEAN_MOTION    = 15.82017732
ECCENTRICITY   = .0001122
INCLINATION    = 42.9983
RA_OF_ASC_NODE = 187.3887
ARG_OF_PERICENTER = 264.9551
MEAN_ANOMALY   = 288.0741

EPHEMERIS_TYPE = 0
CLASSIFICATION_TYPE = U
NORAD_CAT_ID   = 67943
ELEMENT_SET_NO = 999
REV_AT_EPOCH   = 348
BSTAR          = -.68516E-4
MEAN_MOTION_DOT = -.14935E-3
MEAN_MOTION_DDOT = 0

CCSDS_OMM_VERS = 2.0
CREATION_DATE  = 
ORIGINATOR     = 

OBJECT_NAME    = STARLINK-36892
OBJECT_ID      = 2026-037N
CENTER_NAME    = EARTH
REF_FRAME      = TEME
TIME_SYSTEM    = UTC
MEAN_ELEMENT_THEORY = SGP/SGP4

EPOCH          = 2026-03-11T12:00:02.998944
MEAN_MOTION    = 15.82018604
ECCENTRICITY   = .000124
INCLINATION    = 42.9980
RA_OF_ASC_NODE = 187.3671
ARG_OF_PERICENTER = 290.3845
MEAN_ANOMALY   = 271.1965

EPHEMERIS_TYPE = 0
CLASSIFICATION_TYPE = U
NORAD_CAT_ID   = 67944
ELEMENT_SET_NO = 999
REV_AT_EPOCH   = 348
BSTAR          = -.12169E-3
MEAN_MOTION_DOT = -.26081E-3
MEAN_MOTION_DDOT = 0

CCSDS_OMM_VERS = 2.0
CREATION_DATE  = 
ORIGINATOR     = 

OBJECT_NAME    = STARLINK-36908
OBJECT_ID      = 2026-037P
CENTER_NAME    = EARTH
REF_FRAME      = TEME
TIME_SYSTEM    = UTC
MEAN_ELEMENT_THEORY = SGP/SGP4

EPOCH          = 2026-03-11T10:00:01.999584
MEAN_MOTION    = 15.82020667
ECCENTRICITY   = .0001707
INCLINATION    = 42.9983
RA_OF_ASC_NODE = 187.8550
ARG_OF_PERICENTER = 250.9214
MEAN_ANOMALY   = 203.9495

EPHEMERIS_TYPE = 0
CLASSIFICATION_TYPE = U
NORAD_CAT_ID   = 67945
ELEMENT_SET_NO = 999
REV_AT_EPOCH   = 347
BSTAR          = -.14528E-3
MEAN_MOTION_DOT = -.31021E-3
MEAN_MOTION_DDOT = 0

