STARLINK-36861          
1 67934U 26037C   26070.41668981  .00016739  00000+0  81934-4 0  9999
2 67934  42.9980 187.9738 0001827 251.4014 156.4665 15.81999315  3479
STARLINK-36860          
1 67935U 26037D   26070.50003471  .00038041  00000+0  18261-3 0  9999
2 67935  42.9978 187.4536 0001615 264.3703 263.0274 15.81989826  3489
STARLINK-36848          
1 67936U 26037E   26070.50003471  .00010446  00000+0  52113-4 0  9994
2 67936  42.9979 187.4313 0001657 289.1623 246.7779 15.82002183  3487
STARLINK-36370          
1 67937U 26037F   26070.50003471  .00058705  00000+0  27992-3 0  9991
2 67937  42.9981 187.4436 0001155 262.7809 268.8939 15.81979273  3488
STARLINK-36371          
1 67938U 26037G   26070.41668981 -.00024536  00000+0 -11423-3 0  9994
2 67938  42.9981 187.9306 0001778 261.6736 163.2921 15.82031052  3471
STARLINK-36246          
1 67939U 26037H   26070.50003471 -.00037474  00000+0 -17616-3 0  9997
2 67939  42.9982 187.4105 0001521 260.6542 283.8442 15.82021463  3400
STARLINK-36907          
1 67940U 26037J   26070.41668981  .00035957  00000+0  17272-3 0  9992
2 67940  42.9981 187.8868 0001622 276.6726 165.3985 15.81999059  3471
STARLINK-36927          
1 67941U 26037K   26070.41668981  .00005589  00000+0  29039-4 0  9996
2 67941  42.9980 187.8655 0001541 271.2558 179.3453 15.82028244  3474
STARLINK-36914          
1 67942U 26037L   26070.50003471 -.00105920  00000+0 -50569-3 0  9997
2 67942  42.9980 187.3990 0001161 272.7099 276.0583 15.82057480  3480
STARLINK-36851          
1 67943U 26037M   26070.50003471 -.00014935  00000+0 -68516-4 0  9995
2 67943  42.9983 187.3887 0001122 264.9551 288.0741 15.82017732  3487
STARLINK-36892          
1 67944U 26037N   26070.50003471 -.00026081  00000+0 -12169-3 0  9993
2 67944  42.9980 187.3671 0001240 290.3845 271.1965 15.82018604  3486
STARLINK-36908          
1 67945U 26037P   26070.41668981 -.00031021  00000+0 -14528-3 0  9998
2 67945  42.9983 187.8550 0001707 250.9214 203.9495 15.82020667  3473
